<?xml version="1.0" encoding="UTF-8"?>
<gpx creator="Wikiloc - https://www.wikiloc.com" version="1.1" xmlns="http://www.topografix.com/GPX/1/1" xmlns:xsi="http://www.w3.org/2001/XMLSchema-instance" xsi:schemaLocation="http://www.topografix.com/GPX/1/1 http://www.topografix.com/GPX/1/1/gpx.xsd">
  <metadata>
    <name>Wikiloc - Sunny Bay to Mui Wo</name>
    <link href="https://www.wikiloc.com/trail-running-trails/sunny-bay-to-mui-wo-30635884">
      <text>Sunny Bay to Mui Wo - Wikiloc on Wikiloc</text>
    </link>
    <time>2018-11-18T08:37:10Z</time>
  </metadata>
  <trk>
    <name>Sunny Bay to Mui Wo - Wikiloc</name>
    <cmt></cmt>
    <desc></desc>
    <trkseg>
      <trkpt lat="22.332152" lon="114.028483">
        <ele>1.522</ele>
        <time>2018-11-18T04:21:59Z</time>
      </trkpt>
      <trkpt lat="22.332075" lon="114.028425">
        <ele>1.562</ele>
        <time>2018-11-18T04:22:15Z</time>
      </trkpt>
      <trkpt lat="22.332239" lon="114.028049">
        <ele>1.708</ele>
        <time>2018-11-18T04:22:49Z</time>
      </trkpt>
      <trkpt lat="22.332523" lon="114.027898">
        <ele>0.908</ele>
        <time>2018-11-18T04:23:13Z</time>
      </trkpt>
      <trkpt lat="22.332760" lon="114.027516">
        <ele>1.745</ele>
        <time>2018-11-18T04:26:06Z</time>
      </trkpt>
      <trkpt lat="22.332178" lon="114.027816">
        <ele>2.732</ele>
        <time>2018-11-18T04:29:50Z</time>
      </trkpt>
      <trkpt lat="22.331639" lon="114.027784">
        <ele>2.588</ele>
        <time>2018-11-18T04:30:28Z</time>
      </trkpt>
      <trkpt lat="22.330614" lon="114.027470">
        <ele>2.765</ele>
        <time>2018-11-18T04:32:24Z</time>
      </trkpt>
      <trkpt lat="22.329934" lon="114.026928">
        <ele>3.017</ele>
        <time>2018-11-18T04:33:21Z</time>
      </trkpt>
      <trkpt lat="22.328117" lon="114.025261">
        <ele>3.820</ele>
        <time>2018-11-18T04:34:49Z</time>
      </trkpt>
      <trkpt lat="22.327322" lon="114.024320">
        <ele>3.970</ele>
        <time>2018-11-18T04:35:33Z</time>
      </trkpt>
      <trkpt lat="22.326487" lon="114.023003">
        <ele>3.916</ele>
        <time>2018-11-18T04:36:29Z</time>
      </trkpt>
      <trkpt lat="22.326007" lon="114.021965">
        <ele>4.066</ele>
        <time>2018-11-18T04:37:10Z</time>
      </trkpt>
      <trkpt lat="22.325747" lon="114.021093">
        <ele>4.329</ele>
        <time>2018-11-18T04:37:42Z</time>
      </trkpt>
      <trkpt lat="22.325777" lon="114.020717">
        <ele>4.621</ele>
        <time>2018-11-18T04:37:56Z</time>
      </trkpt>
      <trkpt lat="22.325913" lon="114.020520">
        <ele>3.908</ele>
        <time>2018-11-18T04:38:09Z</time>
      </trkpt>
      <trkpt lat="22.326627" lon="114.020410">
        <ele>2.189</ele>
        <time>2018-11-18T04:38:39Z</time>
      </trkpt>
      <trkpt lat="22.326878" lon="114.020626">
        <ele>1.736</ele>
        <time>2018-11-18T04:38:54Z</time>
      </trkpt>
      <trkpt lat="22.327566" lon="114.021619">
        <ele>4.462</ele>
        <time>2018-11-18T04:39:44Z</time>
      </trkpt>
      <trkpt lat="22.328021" lon="114.021694">
        <ele>8.249</ele>
        <time>2018-11-18T04:40:06Z</time>
      </trkpt>
      <trkpt lat="22.328225" lon="114.021945">
        <ele>6.741</ele>
        <time>2018-11-18T04:40:20Z</time>
      </trkpt>
      <trkpt lat="22.328404" lon="114.021880">
        <ele>7.154</ele>
        <time>2018-11-18T04:40:28Z</time>
      </trkpt>
      <trkpt lat="22.328861" lon="114.022213">
        <ele>11.384</ele>
        <time>2018-11-18T04:40:55Z</time>
      </trkpt>
      <trkpt lat="22.329672" lon="114.022330">
        <ele>13.310</ele>
        <time>2018-11-18T04:41:30Z</time>
      </trkpt>
      <trkpt lat="22.330023" lon="114.022613">
        <ele>12.137</ele>
        <time>2018-11-18T04:41:48Z</time>
      </trkpt>
      <trkpt lat="22.330502" lon="114.022615">
        <ele>9.749</ele>
        <time>2018-11-18T04:42:07Z</time>
      </trkpt>
      <trkpt lat="22.330072" lon="114.022633">
        <ele>11.413</ele>
        <time>2018-11-18T04:42:43Z</time>
      </trkpt>
      <trkpt lat="22.330234" lon="114.022656">
        <ele>11.308</ele>
        <time>2018-11-18T04:42:57Z</time>
      </trkpt>
      <trkpt lat="22.330265" lon="114.022557">
        <ele>12.916</ele>
        <time>2018-11-18T04:43:14Z</time>
      </trkpt>
      <trkpt lat="22.330000" lon="114.021901">
        <ele>32.353</ele>
        <time>2018-11-18T04:44:53Z</time>
      </trkpt>
      <trkpt lat="22.329503" lon="114.021530">
        <ele>49.249</ele>
        <time>2018-11-18T04:46:31Z</time>
      </trkpt>
      <trkpt lat="22.329300" lon="114.021150">
        <ele>56.316</ele>
        <time>2018-11-18T04:47:45Z</time>
      </trkpt>
      <trkpt lat="22.328978" lon="114.020984">
        <ele>63.358</ele>
        <time>2018-11-18T04:48:42Z</time>
      </trkpt>
      <trkpt lat="22.328934" lon="114.020738">
        <ele>66.251</ele>
        <time>2018-11-18T04:49:51Z</time>
      </trkpt>
      <trkpt lat="22.328347" lon="114.020394">
        <ele>67.751</ele>
        <time>2018-11-18T04:51:30Z</time>
      </trkpt>
      <trkpt lat="22.328253" lon="114.020009">
        <ele>73.717</ele>
        <time>2018-11-18T04:52:54Z</time>
      </trkpt>
      <trkpt lat="22.327969" lon="114.019920">
        <ele>80.952</ele>
        <time>2018-11-18T04:53:51Z</time>
      </trkpt>
      <trkpt lat="22.327655" lon="114.019166">
        <ele>86.253</ele>
        <time>2018-11-18T04:55:59Z</time>
      </trkpt>
      <trkpt lat="22.327577" lon="114.018508">
        <ele>95.008</ele>
        <time>2018-11-18T04:57:45Z</time>
      </trkpt>
      <trkpt lat="22.327317" lon="114.017658">
        <ele>105.108</ele>
        <time>2018-11-18T05:00:25Z</time>
      </trkpt>
      <trkpt lat="22.326857" lon="114.016919">
        <ele>102.688</ele>
        <time>2018-11-18T05:03:03Z</time>
      </trkpt>
      <trkpt lat="22.326678" lon="114.016238">
        <ele>98.335</ele>
        <time>2018-11-18T05:04:32Z</time>
      </trkpt>
      <trkpt lat="22.326671" lon="114.015766">
        <ele>105.951</ele>
        <time>2018-11-18T05:06:03Z</time>
      </trkpt>
      <trkpt lat="22.326476" lon="114.015624">
        <ele>108.028</ele>
        <time>2018-11-18T05:06:57Z</time>
      </trkpt>
      <trkpt lat="22.326422" lon="114.014651">
        <ele>113.810</ele>
        <time>2018-11-18T05:08:28Z</time>
      </trkpt>
      <trkpt lat="22.326642" lon="114.014346">
        <ele>114.493</ele>
        <time>2018-11-18T05:09:36Z</time>
      </trkpt>
      <trkpt lat="22.326538" lon="114.014395">
        <ele>112.063</ele>
        <time>2018-11-18T05:10:38Z</time>
      </trkpt>
      <trkpt lat="22.326382" lon="114.014008">
        <ele>94.259</ele>
        <time>2018-11-18T05:11:40Z</time>
      </trkpt>
      <trkpt lat="22.325936" lon="114.013411">
        <ele>53.429</ele>
        <time>2018-11-18T05:13:19Z</time>
      </trkpt>
      <trkpt lat="22.325576" lon="114.013183">
        <ele>33.000</ele>
        <time>2018-11-18T05:13:56Z</time>
      </trkpt>
      <trkpt lat="22.325368" lon="114.012776">
        <ele>20.220</ele>
        <time>2018-11-18T05:14:47Z</time>
      </trkpt>
      <trkpt lat="22.325388" lon="114.012398">
        <ele>16.408</ele>
        <time>2018-11-18T05:15:22Z</time>
      </trkpt>
      <trkpt lat="22.325687" lon="114.012132">
        <ele>14.055</ele>
        <time>2018-11-18T05:15:47Z</time>
      </trkpt>
      <trkpt lat="22.325712" lon="114.011876">
        <ele>13.072</ele>
        <time>2018-11-18T05:16:02Z</time>
      </trkpt>
      <trkpt lat="22.325221" lon="114.011472">
        <ele>11.648</ele>
        <time>2018-11-18T05:16:48Z</time>
      </trkpt>
      <trkpt lat="22.325086" lon="114.010907">
        <ele>12.065</ele>
        <time>2018-11-18T05:17:20Z</time>
      </trkpt>
      <trkpt lat="22.325112" lon="114.010424">
        <ele>12.267</ele>
        <time>2018-11-18T05:17:51Z</time>
      </trkpt>
      <trkpt lat="22.325039" lon="114.010143">
        <ele>12.530</ele>
        <time>2018-11-18T05:18:08Z</time>
      </trkpt>
      <trkpt lat="22.324854" lon="114.009929">
        <ele>11.490</ele>
        <time>2018-11-18T05:18:27Z</time>
      </trkpt>
      <trkpt lat="22.324772" lon="114.009389">
        <ele>11.166</ele>
        <time>2018-11-18T05:19:04Z</time>
      </trkpt>
      <trkpt lat="22.324663" lon="114.009486">
        <ele>11.369</ele>
        <time>2018-11-18T05:19:17Z</time>
      </trkpt>
      <trkpt lat="22.324858" lon="114.010259">
        <ele>6.604</ele>
        <time>2018-11-18T05:20:15Z</time>
      </trkpt>
      <trkpt lat="22.324818" lon="114.010458">
        <ele>6.424</ele>
        <time>2018-11-18T05:20:31Z</time>
      </trkpt>
      <trkpt lat="22.324930" lon="114.010390">
        <ele>6.708</ele>
        <time>2018-11-18T05:21:23Z</time>
      </trkpt>
      <trkpt lat="22.324655" lon="114.010333">
        <ele>7.969</ele>
        <time>2018-11-18T05:22:08Z</time>
      </trkpt>
      <trkpt lat="22.324480" lon="114.010785">
        <ele>7.996</ele>
        <time>2018-11-18T05:22:09Z</time>
      </trkpt>
      <trkpt lat="22.324120" lon="114.010707">
        <ele>7.432</ele>
        <time>2018-11-18T05:22:13Z</time>
      </trkpt>
      <trkpt lat="22.324002" lon="114.010520">
        <ele>6.369</ele>
        <time>2018-11-18T05:22:47Z</time>
      </trkpt>
      <trkpt lat="22.323905" lon="114.010531">
        <ele>7.581</ele>
        <time>2018-11-18T05:22:54Z</time>
      </trkpt>
      <trkpt lat="22.323723" lon="114.009839">
        <ele>12.734</ele>
        <time>2018-11-18T05:23:47Z</time>
      </trkpt>
      <trkpt lat="22.323850" lon="114.009738">
        <ele>12.844</ele>
        <time>2018-11-18T05:24:06Z</time>
      </trkpt>
      <trkpt lat="22.324313" lon="114.010788">
        <ele>14.210</ele>
        <time>2018-11-18T05:25:34Z</time>
      </trkpt>
      <trkpt lat="22.324133" lon="114.010941">
        <ele>14.255</ele>
        <time>2018-11-18T05:25:53Z</time>
      </trkpt>
      <trkpt lat="22.324291" lon="114.010964">
        <ele>14.607</ele>
        <time>2018-11-18T05:26:20Z</time>
      </trkpt>
      <trkpt lat="22.324132" lon="114.011975">
        <ele>38.917</ele>
        <time>2018-11-18T05:28:18Z</time>
      </trkpt>
      <trkpt lat="22.323937" lon="114.012458">
        <ele>61.508</ele>
        <time>2018-11-18T05:29:59Z</time>
      </trkpt>
      <trkpt lat="22.324094" lon="114.013339">
        <ele>85.188</ele>
        <time>2018-11-18T05:32:26Z</time>
      </trkpt>
      <trkpt lat="22.324035" lon="114.013820">
        <ele>91.395</ele>
        <time>2018-11-18T05:33:08Z</time>
      </trkpt>
      <trkpt lat="22.324131" lon="114.014007">
        <ele>94.641</ele>
        <time>2018-11-18T05:33:26Z</time>
      </trkpt>
      <trkpt lat="22.324008" lon="114.014151">
        <ele>102.838</ele>
        <time>2018-11-18T05:34:29Z</time>
      </trkpt>
      <trkpt lat="22.323660" lon="114.014248">
        <ele>123.190</ele>
        <time>2018-11-18T05:40:15Z</time>
      </trkpt>
      <trkpt lat="22.323522" lon="114.014449">
        <ele>131.263</ele>
        <time>2018-11-18T05:42:47Z</time>
      </trkpt>
      <trkpt lat="22.323238" lon="114.014504">
        <ele>148.433</ele>
        <time>2018-11-18T05:54:05Z</time>
      </trkpt>
      <trkpt lat="22.322990" lon="114.013981">
        <ele>156.459</ele>
        <time>2018-11-18T05:56:10Z</time>
      </trkpt>
      <trkpt lat="22.322849" lon="114.014004">
        <ele>164.364</ele>
        <time>2018-11-18T05:57:21Z</time>
      </trkpt>
      <trkpt lat="22.322604" lon="114.013819">
        <ele>173.006</ele>
        <time>2018-11-18T05:58:54Z</time>
      </trkpt>
      <trkpt lat="22.322391" lon="114.013962">
        <ele>173.516</ele>
        <time>2018-11-18T06:00:33Z</time>
      </trkpt>
      <trkpt lat="22.321466" lon="114.013833">
        <ele>190.108</ele>
        <time>2018-11-18T06:02:36Z</time>
      </trkpt>
      <trkpt lat="22.321119" lon="114.013976">
        <ele>201.269</ele>
        <time>2018-11-18T06:03:41Z</time>
      </trkpt>
      <trkpt lat="22.320563" lon="114.014028">
        <ele>215.396</ele>
        <time>2018-11-18T06:05:36Z</time>
      </trkpt>
      <trkpt lat="22.320309" lon="114.013731">
        <ele>216.792</ele>
        <time>2018-11-18T06:10:08Z</time>
      </trkpt>
      <trkpt lat="22.319648" lon="114.013354">
        <ele>217.399</ele>
        <time>2018-11-18T06:11:50Z</time>
      </trkpt>
      <trkpt lat="22.319062" lon="114.013153">
        <ele>225.671</ele>
        <time>2018-11-18T06:13:40Z</time>
      </trkpt>
      <trkpt lat="22.318706" lon="114.013239">
        <ele>234.754</ele>
        <time>2018-11-18T06:14:48Z</time>
      </trkpt>
      <trkpt lat="22.318136" lon="114.013000">
        <ele>243.654</ele>
        <time>2018-11-18T06:16:26Z</time>
      </trkpt>
      <trkpt lat="22.317938" lon="114.013040">
        <ele>246.590</ele>
        <time>2018-11-18T06:16:55Z</time>
      </trkpt>
      <trkpt lat="22.317749" lon="114.012905">
        <ele>255.528</ele>
        <time>2018-11-18T06:17:36Z</time>
      </trkpt>
      <trkpt lat="22.317715" lon="114.012382">
        <ele>263.689</ele>
        <time>2018-11-18T06:18:37Z</time>
      </trkpt>
      <trkpt lat="22.317151" lon="114.011652">
        <ele>271.617</ele>
        <time>2018-11-18T06:20:42Z</time>
      </trkpt>
      <trkpt lat="22.317013" lon="114.011304">
        <ele>276.508</ele>
        <time>2018-11-18T06:21:17Z</time>
      </trkpt>
      <trkpt lat="22.316789" lon="114.011194">
        <ele>276.615</ele>
        <time>2018-11-18T06:21:49Z</time>
      </trkpt>
      <trkpt lat="22.316560" lon="114.011251">
        <ele>282.532</ele>
        <time>2018-11-18T06:22:21Z</time>
      </trkpt>
      <trkpt lat="22.315969" lon="114.011018">
        <ele>291.228</ele>
        <time>2018-11-18T06:23:24Z</time>
      </trkpt>
      <trkpt lat="22.315324" lon="114.010299">
        <ele>303.535</ele>
        <time>2018-11-18T06:25:50Z</time>
      </trkpt>
      <trkpt lat="22.315070" lon="114.009398">
        <ele>297.577</ele>
        <time>2018-11-18T06:26:56Z</time>
      </trkpt>
      <trkpt lat="22.314559" lon="114.008814">
        <ele>297.880</ele>
        <time>2018-11-18T06:28:07Z</time>
      </trkpt>
      <trkpt lat="22.314545" lon="114.007606">
        <ele>287.410</ele>
        <time>2018-11-18T06:29:24Z</time>
      </trkpt>
      <trkpt lat="22.314374" lon="114.007199">
        <ele>279.056</ele>
        <time>2018-11-18T06:29:47Z</time>
      </trkpt>
      <trkpt lat="22.314005" lon="114.006725">
        <ele>288.728</ele>
        <time>2018-11-18T06:30:45Z</time>
      </trkpt>
      <trkpt lat="22.313712" lon="114.006532">
        <ele>285.989</ele>
        <time>2018-11-18T06:31:45Z</time>
      </trkpt>
      <trkpt lat="22.312869" lon="114.006309">
        <ele>272.917</ele>
        <time>2018-11-18T06:35:54Z</time>
      </trkpt>
      <trkpt lat="22.312443" lon="114.006554">
        <ele>264.208</ele>
        <time>2018-11-18T06:36:41Z</time>
      </trkpt>
      <trkpt lat="22.311673" lon="114.006590">
        <ele>242.345</ele>
        <time>2018-11-18T06:38:05Z</time>
      </trkpt>
      <trkpt lat="22.311405" lon="114.006822">
        <ele>234.192</ele>
        <time>2018-11-18T06:38:57Z</time>
      </trkpt>
      <trkpt lat="22.310591" lon="114.006965">
        <ele>234.868</ele>
        <time>2018-11-18T06:40:15Z</time>
      </trkpt>
      <trkpt lat="22.310450" lon="114.007154">
        <ele>225.415</ele>
        <time>2018-11-18T06:41:01Z</time>
      </trkpt>
      <trkpt lat="22.309924" lon="114.006941">
        <ele>199.517</ele>
        <time>2018-11-18T06:43:11Z</time>
      </trkpt>
      <trkpt lat="22.309292" lon="114.006996">
        <ele>191.510</ele>
        <time>2018-11-18T06:43:38Z</time>
      </trkpt>
      <trkpt lat="22.308926" lon="114.006832">
        <ele>201.210</ele>
        <time>2018-11-18T06:44:19Z</time>
      </trkpt>
      <trkpt lat="22.307740" lon="114.005891">
        <ele>193.256</ele>
        <time>2018-11-18T06:46:16Z</time>
      </trkpt>
      <trkpt lat="22.307404" lon="114.005225">
        <ele>197.028</ele>
        <time>2018-11-18T06:47:15Z</time>
      </trkpt>
      <trkpt lat="22.306924" lon="114.005073">
        <ele>207.089</ele>
        <time>2018-11-18T06:48:46Z</time>
      </trkpt>
      <trkpt lat="22.306750" lon="114.004914">
        <ele>217.617</ele>
        <time>2018-11-18T06:49:34Z</time>
      </trkpt>
      <trkpt lat="22.306584" lon="114.004948">
        <ele>224.808</ele>
        <time>2018-11-18T06:50:24Z</time>
      </trkpt>
      <trkpt lat="22.306400" lon="114.004657">
        <ele>237.165</ele>
        <time>2018-11-18T06:51:38Z</time>
      </trkpt>
      <trkpt lat="22.305840" lon="114.004403">
        <ele>259.412</ele>
        <time>2018-11-18T06:53:56Z</time>
      </trkpt>
      <trkpt lat="22.305704" lon="114.003765">
        <ele>282.858</ele>
        <time>2018-11-18T06:56:10Z</time>
      </trkpt>
      <trkpt lat="22.305450" lon="114.003514">
        <ele>302.475</ele>
        <time>2018-11-18T06:58:23Z</time>
      </trkpt>
      <trkpt lat="22.305333" lon="114.003195">
        <ele>311.247</ele>
        <time>2018-11-18T06:59:45Z</time>
      </trkpt>
      <trkpt lat="22.304598" lon="114.002641">
        <ele>314.770</ele>
        <time>2018-11-18T07:01:01Z</time>
      </trkpt>
      <trkpt lat="22.304616" lon="114.002267">
        <ele>322.130</ele>
        <time>2018-11-18T07:01:43Z</time>
      </trkpt>
      <trkpt lat="22.304472" lon="114.001656">
        <ele>336.516</ele>
        <time>2018-11-18T07:03:10Z</time>
      </trkpt>
      <trkpt lat="22.304338" lon="114.001374">
        <ele>343.597</ele>
        <time>2018-11-18T07:03:55Z</time>
      </trkpt>
      <trkpt lat="22.304020" lon="114.001076">
        <ele>355.723</ele>
        <time>2018-11-18T07:05:24Z</time>
      </trkpt>
      <trkpt lat="22.303547" lon="114.000818">
        <ele>358.225</ele>
        <time>2018-11-18T07:06:08Z</time>
      </trkpt>
      <trkpt lat="22.303082" lon="114.001261">
        <ele>355.908</ele>
        <time>2018-11-18T07:06:54Z</time>
      </trkpt>
      <trkpt lat="22.303082" lon="114.001368">
        <ele>355.952</ele>
        <time>2018-11-18T07:07:01Z</time>
      </trkpt>
      <trkpt lat="22.303116" lon="114.001272">
        <ele>357.199</ele>
        <time>2018-11-18T07:07:22Z</time>
      </trkpt>
      <trkpt lat="22.302568" lon="114.000941">
        <ele>360.925</ele>
        <time>2018-11-18T07:08:51Z</time>
      </trkpt>
      <trkpt lat="22.302201" lon="114.000426">
        <ele>367.162</ele>
        <time>2018-11-18T07:09:43Z</time>
      </trkpt>
      <trkpt lat="22.301807" lon="114.000194">
        <ele>377.984</ele>
        <time>2018-11-18T07:10:38Z</time>
      </trkpt>
      <trkpt lat="22.301585" lon="113.999871">
        <ele>388.027</ele>
        <time>2018-11-18T07:11:46Z</time>
      </trkpt>
      <trkpt lat="22.300959" lon="113.999833">
        <ele>400.947</ele>
        <time>2018-11-18T07:13:07Z</time>
      </trkpt>
      <trkpt lat="22.300569" lon="113.999547">
        <ele>406.743</ele>
        <time>2018-11-18T07:15:00Z</time>
      </trkpt>
      <trkpt lat="22.300188" lon="113.999618">
        <ele>428.519</ele>
        <time>2018-11-18T07:17:38Z</time>
      </trkpt>
      <trkpt lat="22.299720" lon="113.999372">
        <ele>446.509</ele>
        <time>2018-11-18T07:19:28Z</time>
      </trkpt>
      <trkpt lat="22.299361" lon="113.999548">
        <ele>456.219</ele>
        <time>2018-11-18T07:22:25Z</time>
      </trkpt>
      <trkpt lat="22.299162" lon="113.999307">
        <ele>452.508</ele>
        <time>2018-11-18T07:23:04Z</time>
      </trkpt>
      <trkpt lat="22.298645" lon="113.997485">
        <ele>438.994</ele>
        <time>2018-11-18T07:24:22Z</time>
      </trkpt>
      <trkpt lat="22.298122" lon="113.997157">
        <ele>440.011</ele>
        <time>2018-11-18T07:25:07Z</time>
      </trkpt>
      <trkpt lat="22.297688" lon="113.996479">
        <ele>447.017</ele>
        <time>2018-11-18T07:26:10Z</time>
      </trkpt>
      <trkpt lat="22.297276" lon="113.996289">
        <ele>443.174</ele>
        <time>2018-11-18T07:26:36Z</time>
      </trkpt>
      <trkpt lat="22.296913" lon="113.995965">
        <ele>442.816</ele>
        <time>2018-11-18T07:26:57Z</time>
      </trkpt>
      <trkpt lat="22.296685" lon="113.995934">
        <ele>442.219</ele>
        <time>2018-11-18T07:27:07Z</time>
      </trkpt>
      <trkpt lat="22.296108" lon="113.996393">
        <ele>431.219</ele>
        <time>2018-11-18T07:27:54Z</time>
      </trkpt>
      <trkpt lat="22.295860" lon="113.996463">
        <ele>425.585</ele>
        <time>2018-11-18T07:28:12Z</time>
      </trkpt>
      <trkpt lat="22.295354" lon="113.996339">
        <ele>421.092</ele>
        <time>2018-11-18T07:28:58Z</time>
      </trkpt>
      <trkpt lat="22.295026" lon="113.996127">
        <ele>408.373</ele>
        <time>2018-11-18T07:29:28Z</time>
      </trkpt>
      <trkpt lat="22.294649" lon="113.996501">
        <ele>393.520</ele>
        <time>2018-11-18T07:30:31Z</time>
      </trkpt>
      <trkpt lat="22.294235" lon="113.996680">
        <ele>379.508</ele>
        <time>2018-11-18T07:30:59Z</time>
      </trkpt>
      <trkpt lat="22.293786" lon="113.996508">
        <ele>369.922</ele>
        <time>2018-11-18T07:31:27Z</time>
      </trkpt>
      <trkpt lat="22.293349" lon="113.996007">
        <ele>360.759</ele>
        <time>2018-11-18T07:31:51Z</time>
      </trkpt>
      <trkpt lat="22.292857" lon="113.995723">
        <ele>359.085</ele>
        <time>2018-11-18T07:32:33Z</time>
      </trkpt>
      <trkpt lat="22.292763" lon="113.995375">
        <ele>358.252</ele>
        <time>2018-11-18T07:32:55Z</time>
      </trkpt>
      <trkpt lat="22.292281" lon="113.995063">
        <ele>356.414</ele>
        <time>2018-11-18T07:33:31Z</time>
      </trkpt>
      <trkpt lat="22.292300" lon="113.994754">
        <ele>357.627</ele>
        <time>2018-11-18T07:33:53Z</time>
      </trkpt>
      <trkpt lat="22.292123" lon="113.994476">
        <ele>357.037</ele>
        <time>2018-11-18T07:34:14Z</time>
      </trkpt>
      <trkpt lat="22.292023" lon="113.994446">
        <ele>354.083</ele>
        <time>2018-11-18T07:34:37Z</time>
      </trkpt>
      <trkpt lat="22.291435" lon="113.994750">
        <ele>333.887</ele>
        <time>2018-11-18T07:35:21Z</time>
      </trkpt>
      <trkpt lat="22.290584" lon="113.994146">
        <ele>333.442</ele>
        <time>2018-11-18T07:36:32Z</time>
      </trkpt>
      <trkpt lat="22.290042" lon="113.994389">
        <ele>323.226</ele>
        <time>2018-11-18T07:37:13Z</time>
      </trkpt>
      <trkpt lat="22.289681" lon="113.994283">
        <ele>320.208</ele>
        <time>2018-11-18T07:37:34Z</time>
      </trkpt>
      <trkpt lat="22.289425" lon="113.994458">
        <ele>319.691</ele>
        <time>2018-11-18T07:37:55Z</time>
      </trkpt>
      <trkpt lat="22.288906" lon="113.994503">
        <ele>316.598</ele>
        <time>2018-11-18T07:38:31Z</time>
      </trkpt>
      <trkpt lat="22.288632" lon="113.994398">
        <ele>313.054</ele>
        <time>2018-11-18T07:38:46Z</time>
      </trkpt>
      <trkpt lat="22.288320" lon="113.994106">
        <ele>314.261</ele>
        <time>2018-11-18T07:39:18Z</time>
      </trkpt>
      <trkpt lat="22.288031" lon="113.994100">
        <ele>316.333</ele>
        <time>2018-11-18T07:39:38Z</time>
      </trkpt>
      <trkpt lat="22.287725" lon="113.994204">
        <ele>318.956</ele>
        <time>2018-11-18T07:40:03Z</time>
      </trkpt>
      <trkpt lat="22.287540" lon="113.994704">
        <ele>306.636</ele>
        <time>2018-11-18T07:40:40Z</time>
      </trkpt>
      <trkpt lat="22.287045" lon="113.994842">
        <ele>287.722</ele>
        <time>2018-11-18T07:41:40Z</time>
      </trkpt>
      <trkpt lat="22.286961" lon="113.994962">
        <ele>282.028</ele>
        <time>2018-11-18T07:41:56Z</time>
      </trkpt>
      <trkpt lat="22.286796" lon="113.994949">
        <ele>279.889</ele>
        <time>2018-11-18T07:42:05Z</time>
      </trkpt>
      <trkpt lat="22.286541" lon="113.994446">
        <ele>277.617</ele>
        <time>2018-11-18T07:42:28Z</time>
      </trkpt>
      <trkpt lat="22.286073" lon="113.993980">
        <ele>276.108</ele>
        <time>2018-11-18T07:43:06Z</time>
      </trkpt>
      <trkpt lat="22.285854" lon="113.993245">
        <ele>271.945</ele>
        <time>2018-11-18T07:43:49Z</time>
      </trkpt>
      <trkpt lat="22.285420" lon="113.992752">
        <ele>267.632</ele>
        <time>2018-11-18T07:44:36Z</time>
      </trkpt>
      <trkpt lat="22.285277" lon="113.992228">
        <ele>265.678</ele>
        <time>2018-11-18T07:45:00Z</time>
      </trkpt>
      <trkpt lat="22.285010" lon="113.991860">
        <ele>261.925</ele>
        <time>2018-11-18T07:45:33Z</time>
      </trkpt>
      <trkpt lat="22.284417" lon="113.991603">
        <ele>253.547</ele>
        <time>2018-11-18T07:46:15Z</time>
      </trkpt>
      <trkpt lat="22.284109" lon="113.991750">
        <ele>246.030</ele>
        <time>2018-11-18T07:46:35Z</time>
      </trkpt>
      <trkpt lat="22.283652" lon="113.991270">
        <ele>240.090</ele>
        <time>2018-11-18T07:47:04Z</time>
      </trkpt>
      <trkpt lat="22.283333" lon="113.990499">
        <ele>235.166</ele>
        <time>2018-11-18T07:47:56Z</time>
      </trkpt>
      <trkpt lat="22.283366" lon="113.989851">
        <ele>227.475</ele>
        <time>2018-11-18T07:48:28Z</time>
      </trkpt>
      <trkpt lat="22.283150" lon="113.989607">
        <ele>224.628</ele>
        <time>2018-11-18T07:48:51Z</time>
      </trkpt>
      <trkpt lat="22.283112" lon="113.989301">
        <ele>217.720</ele>
        <time>2018-11-18T07:49:13Z</time>
      </trkpt>
      <trkpt lat="22.283187" lon="113.989176">
        <ele>214.308</ele>
        <time>2018-11-18T07:49:31Z</time>
      </trkpt>
      <trkpt lat="22.282799" lon="113.988616">
        <ele>205.660</ele>
        <time>2018-11-18T07:50:13Z</time>
      </trkpt>
      <trkpt lat="22.282933" lon="113.988258">
        <ele>199.387</ele>
        <time>2018-11-18T07:50:36Z</time>
      </trkpt>
      <trkpt lat="22.282649" lon="113.988012">
        <ele>192.763</ele>
        <time>2018-11-18T07:50:56Z</time>
      </trkpt>
      <trkpt lat="22.282748" lon="113.987691">
        <ele>192.070</ele>
        <time>2018-11-18T07:51:09Z</time>
      </trkpt>
      <trkpt lat="22.282630" lon="113.987472">
        <ele>192.292</ele>
        <time>2018-11-18T07:51:23Z</time>
      </trkpt>
      <trkpt lat="22.282743" lon="113.987230">
        <ele>192.415</ele>
        <time>2018-11-18T07:51:37Z</time>
      </trkpt>
      <trkpt lat="22.282531" lon="113.987098">
        <ele>191.475</ele>
        <time>2018-11-18T07:51:56Z</time>
      </trkpt>
      <trkpt lat="22.282737" lon="113.986763">
        <ele>191.591</ele>
        <time>2018-11-18T07:52:20Z</time>
      </trkpt>
      <trkpt lat="22.282742" lon="113.986155">
        <ele>192.561</ele>
        <time>2018-11-18T07:53:00Z</time>
      </trkpt>
      <trkpt lat="22.282591" lon="113.985928">
        <ele>193.421</ele>
        <time>2018-11-18T07:53:20Z</time>
      </trkpt>
      <trkpt lat="22.282364" lon="113.985081">
        <ele>193.313</ele>
        <time>2018-11-18T07:54:17Z</time>
      </trkpt>
      <trkpt lat="22.282002" lon="113.984505">
        <ele>193.808</ele>
        <time>2018-11-18T07:55:04Z</time>
      </trkpt>
      <trkpt lat="22.281454" lon="113.984026">
        <ele>192.349</ele>
        <time>2018-11-18T07:55:55Z</time>
      </trkpt>
      <trkpt lat="22.281449" lon="113.983683">
        <ele>190.796</ele>
        <time>2018-11-18T07:56:20Z</time>
      </trkpt>
      <trkpt lat="22.281027" lon="113.984152">
        <ele>185.792</ele>
        <time>2018-11-18T07:57:04Z</time>
      </trkpt>
      <trkpt lat="22.280456" lon="113.985111">
        <ele>183.199</ele>
        <time>2018-11-18T07:58:12Z</time>
      </trkpt>
      <trkpt lat="22.280047" lon="113.985413">
        <ele>182.771</ele>
        <time>2018-11-18T07:58:33Z</time>
      </trkpt>
      <trkpt lat="22.280115" lon="113.985803">
        <ele>180.394</ele>
        <time>2018-11-18T07:58:47Z</time>
      </trkpt>
      <trkpt lat="22.279882" lon="113.985915">
        <ele>182.094</ele>
        <time>2018-11-18T07:58:57Z</time>
      </trkpt>
      <trkpt lat="22.279792" lon="113.986202">
        <ele>183.660</ele>
        <time>2018-11-18T07:59:07Z</time>
      </trkpt>
      <trkpt lat="22.279910" lon="113.986727">
        <ele>178.836</ele>
        <time>2018-11-18T07:59:28Z</time>
      </trkpt>
      <trkpt lat="22.279733" lon="113.986826">
        <ele>177.017</ele>
        <time>2018-11-18T07:59:40Z</time>
      </trkpt>
      <trkpt lat="22.279733" lon="113.987034">
        <ele>176.318</ele>
        <time>2018-11-18T07:59:54Z</time>
      </trkpt>
      <trkpt lat="22.279379" lon="113.987141">
        <ele>175.308</ele>
        <time>2018-11-18T08:00:18Z</time>
      </trkpt>
      <trkpt lat="22.279284" lon="113.987808">
        <ele>173.686</ele>
        <time>2018-11-18T08:01:02Z</time>
      </trkpt>
      <trkpt lat="22.279489" lon="113.988020">
        <ele>171.923</ele>
        <time>2018-11-18T08:01:18Z</time>
      </trkpt>
      <trkpt lat="22.279423" lon="113.988322">
        <ele>168.849</ele>
        <time>2018-11-18T08:01:31Z</time>
      </trkpt>
      <trkpt lat="22.279008" lon="113.988250">
        <ele>168.296</ele>
        <time>2018-11-18T08:01:58Z</time>
      </trkpt>
      <trkpt lat="22.277884" lon="113.988783">
        <ele>173.628</ele>
        <time>2018-11-18T08:03:31Z</time>
      </trkpt>
      <trkpt lat="22.277632" lon="113.989038">
        <ele>166.791</ele>
        <time>2018-11-18T08:03:54Z</time>
      </trkpt>
      <trkpt lat="22.277392" lon="113.988816">
        <ele>158.331</ele>
        <time>2018-11-18T08:04:14Z</time>
      </trkpt>
      <trkpt lat="22.277035" lon="113.988802">
        <ele>146.767</ele>
        <time>2018-11-18T08:04:38Z</time>
      </trkpt>
      <trkpt lat="22.277135" lon="113.989241">
        <ele>138.789</ele>
        <time>2018-11-18T08:05:00Z</time>
      </trkpt>
      <trkpt lat="22.277009" lon="113.989172">
        <ele>134.806</ele>
        <time>2018-11-18T08:05:09Z</time>
      </trkpt>
      <trkpt lat="22.276941" lon="113.989418">
        <ele>126.826</ele>
        <time>2018-11-18T08:05:30Z</time>
      </trkpt>
      <trkpt lat="22.276816" lon="113.989410">
        <ele>123.708</ele>
        <time>2018-11-18T08:05:36Z</time>
      </trkpt>
      <trkpt lat="22.276522" lon="113.989670">
        <ele>110.581</ele>
        <time>2018-11-18T08:06:03Z</time>
      </trkpt>
      <trkpt lat="22.276282" lon="113.989638">
        <ele>102.988</ele>
        <time>2018-11-18T08:06:20Z</time>
      </trkpt>
      <trkpt lat="22.276150" lon="113.989329">
        <ele>95.314</ele>
        <time>2018-11-18T08:06:40Z</time>
      </trkpt>
      <trkpt lat="22.275865" lon="113.989447">
        <ele>87.761</ele>
        <time>2018-11-18T08:07:05Z</time>
      </trkpt>
      <trkpt lat="22.275663" lon="113.989185">
        <ele>84.093</ele>
        <time>2018-11-18T08:07:21Z</time>
      </trkpt>
      <trkpt lat="22.275340" lon="113.989110">
        <ele>79.046</ele>
        <time>2018-11-18T08:07:34Z</time>
      </trkpt>
      <trkpt lat="22.275025" lon="113.989220">
        <ele>73.236</ele>
        <time>2018-11-18T08:07:47Z</time>
      </trkpt>
      <trkpt lat="22.274837" lon="113.989419">
        <ele>69.122</ele>
        <time>2018-11-18T08:07:58Z</time>
      </trkpt>
      <trkpt lat="22.274564" lon="113.989340">
        <ele>66.955</ele>
        <time>2018-11-18T08:08:10Z</time>
      </trkpt>
      <trkpt lat="22.274273" lon="113.989423">
        <ele>67.307</ele>
        <time>2018-11-18T08:08:22Z</time>
      </trkpt>
      <trkpt lat="22.274165" lon="113.989802">
        <ele>64.817</ele>
        <time>2018-11-18T08:08:44Z</time>
      </trkpt>
      <trkpt lat="22.273971" lon="113.989881">
        <ele>62.608</ele>
        <time>2018-11-18T08:09:02Z</time>
      </trkpt>
      <trkpt lat="22.273821" lon="113.990142">
        <ele>64.358</ele>
        <time>2018-11-18T08:09:32Z</time>
      </trkpt>
      <trkpt lat="22.273801" lon="113.990863">
        <ele>63.145</ele>
        <time>2018-11-18T08:10:15Z</time>
      </trkpt>
      <trkpt lat="22.273673" lon="113.990950">
        <ele>61.091</ele>
        <time>2018-11-18T08:10:37Z</time>
      </trkpt>
      <trkpt lat="22.272896" lon="113.990855">
        <ele>43.558</ele>
        <time>2018-11-18T08:12:18Z</time>
      </trkpt>
      <trkpt lat="22.273228" lon="113.991209">
        <ele>36.990</ele>
        <time>2018-11-18T08:12:46Z</time>
      </trkpt>
      <trkpt lat="22.273192" lon="113.991398">
        <ele>34.783</ele>
        <time>2018-11-18T08:12:55Z</time>
      </trkpt>
      <trkpt lat="22.273029" lon="113.991694">
        <ele>31.593</ele>
        <time>2018-11-18T08:13:15Z</time>
      </trkpt>
      <trkpt lat="22.272717" lon="113.991778">
        <ele>30.849</ele>
        <time>2018-11-18T08:13:39Z</time>
      </trkpt>
      <trkpt lat="22.272468" lon="113.992081">
        <ele>30.856</ele>
        <time>2018-11-18T08:14:03Z</time>
      </trkpt>
      <trkpt lat="22.272014" lon="113.992023">
        <ele>30.359</ele>
        <time>2018-11-18T08:14:33Z</time>
      </trkpt>
      <trkpt lat="22.271493" lon="113.991586">
        <ele>28.314</ele>
        <time>2018-11-18T08:15:51Z</time>
      </trkpt>
      <trkpt lat="22.271670" lon="113.991676">
        <ele>30.608</ele>
        <time>2018-11-18T08:16:15Z</time>
      </trkpt>
      <trkpt lat="22.271575" lon="113.990868">
        <ele>32.068</ele>
        <time>2018-11-18T08:17:19Z</time>
      </trkpt>
      <trkpt lat="22.271324" lon="113.990504">
        <ele>32.185</ele>
        <time>2018-11-18T08:17:49Z</time>
      </trkpt>
      <trkpt lat="22.270918" lon="113.990163">
        <ele>31.991</ele>
        <time>2018-11-18T08:18:26Z</time>
      </trkpt>
      <trkpt lat="22.270421" lon="113.990059">
        <ele>30.958</ele>
        <time>2018-11-18T08:19:05Z</time>
      </trkpt>
      <trkpt lat="22.270086" lon="113.990225">
        <ele>30.030</ele>
        <time>2018-11-18T08:19:33Z</time>
      </trkpt>
      <trkpt lat="22.269695" lon="113.991070">
        <ele>27.693</ele>
        <time>2018-11-18T08:20:37Z</time>
      </trkpt>
      <trkpt lat="22.269304" lon="113.991578">
        <ele>25.723</ele>
        <time>2018-11-18T08:21:20Z</time>
      </trkpt>
      <trkpt lat="22.269181" lon="113.992069">
        <ele>24.389</ele>
        <time>2018-11-18T08:21:51Z</time>
      </trkpt>
      <trkpt lat="22.268888" lon="113.992286">
        <ele>23.743</ele>
        <time>2018-11-18T08:22:13Z</time>
      </trkpt>
      <trkpt lat="22.268309" lon="113.992411">
        <ele>22.564</ele>
        <time>2018-11-18T08:23:07Z</time>
      </trkpt>
      <trkpt lat="22.268184" lon="113.992648">
        <ele>21.710</ele>
        <time>2018-11-18T08:23:24Z</time>
      </trkpt>
      <trkpt lat="22.267835" lon="113.992893">
        <ele>21.008</ele>
        <time>2018-11-18T08:23:53Z</time>
      </trkpt>
      <trkpt lat="22.267543" lon="113.993307">
        <ele>20.067</ele>
        <time>2018-11-18T08:24:28Z</time>
      </trkpt>
      <trkpt lat="22.267484" lon="113.993907">
        <ele>20.094</ele>
        <time>2018-11-18T08:25:09Z</time>
      </trkpt>
      <trkpt lat="22.267276" lon="113.994259">
        <ele>19.630</ele>
        <time>2018-11-18T08:25:35Z</time>
      </trkpt>
      <trkpt lat="22.266963" lon="113.994472">
        <ele>19.637</ele>
        <time>2018-11-18T08:26:01Z</time>
      </trkpt>
      <trkpt lat="22.266895" lon="113.995032">
        <ele>19.569</ele>
        <time>2018-11-18T08:26:41Z</time>
      </trkpt>
      <trkpt lat="22.267414" lon="113.995814">
        <ele>18.952</ele>
        <time>2018-11-18T08:27:43Z</time>
      </trkpt>
      <trkpt lat="22.267727" lon="113.996652">
        <ele>19.072</ele>
        <time>2018-11-18T08:28:49Z</time>
      </trkpt>
      <trkpt lat="22.267744" lon="113.996867">
        <ele>19.358</ele>
        <time>2018-11-18T08:29:05Z</time>
      </trkpt>
      <trkpt lat="22.267498" lon="113.996847">
        <ele>19.431</ele>
        <time>2018-11-18T08:29:32Z</time>
      </trkpt>
      <trkpt lat="22.267680" lon="113.997170">
        <ele>20.461</ele>
        <time>2018-11-18T08:29:57Z</time>
      </trkpt>
      <trkpt lat="22.267698" lon="113.997538">
        <ele>19.707</ele>
        <time>2018-11-18T08:30:23Z</time>
      </trkpt>
      <trkpt lat="22.267479" lon="113.998184">
        <ele>19.508</ele>
        <time>2018-11-18T08:31:13Z</time>
      </trkpt>
      <trkpt lat="22.267014" lon="113.998177">
        <ele>19.786</ele>
        <time>2018-11-18T08:31:47Z</time>
      </trkpt>
      <trkpt lat="22.266672" lon="113.998399">
        <ele>20.093</ele>
        <time>2018-11-18T08:32:21Z</time>
      </trkpt>
      <trkpt lat="22.266778" lon="113.998710">
        <ele>20.029</ele>
        <time>2018-11-18T08:32:42Z</time>
      </trkpt>
      <trkpt lat="22.266755" lon="113.999113">
        <ele>19.936</ele>
        <time>2018-11-18T08:33:10Z</time>
      </trkpt>
      <trkpt lat="22.266375" lon="114.000227">
        <ele>20.198</ele>
        <time>2018-11-18T08:34:37Z</time>
      </trkpt>
      <trkpt lat="22.266031" lon="114.000585">
        <ele>20.441</ele>
        <time>2018-11-18T08:35:10Z</time>
      </trkpt>
      <trkpt lat="22.265655" lon="114.000752">
        <ele>19.831</ele>
        <time>2018-11-18T08:35:40Z</time>
      </trkpt>
      <trkpt lat="22.265558" lon="114.001416">
        <ele>19.277</ele>
        <time>2018-11-18T08:36:31Z</time>
      </trkpt>
      <trkpt lat="22.265403" lon="114.001663">
        <ele>19.157</ele>
        <time>2018-11-18T08:36:51Z</time>
      </trkpt>
      <trkpt lat="22.265172" lon="114.001803">
        <ele>19.100</ele>
        <time>2018-11-18T08:37:10Z</time>
      </trkpt>
    </trkseg>
  </trk></gpx>